{"type":"Feature","properties":{"MUN":"SURF CITY BORO","COUNTY":"OCEAN","MUN_LABEL":"Surf City Borough","MUN_TYPE":"Borough","NAME":"Surf City Borough","GNIS_NAME":"Borough of Surf City"},"geometry":{"type":"Polygon","coordinates":[[[-74.1608378,39.671235],[-74.160076,39.6708696],[-74.159034,39.6703698],[-74.1589021,39.6703124],[-74.157663,39.6697065],[-74.1570585,39.6694109],[-74.1572152,39.6691646],[-74.1574542,39.668817],[-74.1575982,39.6685656],[-74.1576453,39.6684521],[-74.1576674,39.6683331],[-74.1577289,39.668217],[-74.1578119,39.6681037],[-74.1579125,39.6680375],[-74.1580744,39.6679148],[-74.1581786,39.6677632],[-74.1591239,39.6663849],[-74.1592441,39.6662322],[-74.159403,39.6659135],[-74.1595546,39.6656868],[-74.1597455,39.6654908],[-74.1601007,39.6651399],[-74.1610976,39.6637675],[-74.1613699,39.6634515],[-74.1615656,39.6631517],[-74.161681,39.6629988],[-74.1617588,39.6629272],[-74.1620239,39.6626924],[-74.1620655,39.6626441],[-74.1630705,39.6612845],[-74.1631535,39.6611859],[-74.1635079,39.6606634],[-74.1636823,39.6604748],[-74.1638791,39.6603238],[-74.1641289,39.660027],[-74.1650003,39.6589173],[-74.1656987,39.6579962],[-74.1658483,39.6578491],[-74.1670456,39.6563649],[-74.167502,39.6557549],[-74.1677277,39.6554092],[-74.1677302,39.6554069],[-74.1680084,39.655158],[-74.1683437,39.6547172],[-74.1683823,39.6546816],[-74.1685677,39.6544436],[-74.1686387,39.6543524],[-74.1688931,39.6540256],[-74.1696356,39.6531906],[-74.16971,39.6530406],[-74.1697571,39.6530045],[-74.1699118,39.6529014],[-74.1700531,39.6527308],[-74.1701546,39.6525551],[-74.1703032,39.6523017],[-74.1705058,39.6519811],[-74.1706266,39.6518275],[-74.1715872,39.652293],[-74.1730418,39.6529979],[-74.1736022,39.6532676],[-74.1741369,39.6535249],[-74.1773495,39.6550919],[-74.1774215,39.6551263],[-74.1796864,39.6562109],[-74.1801995,39.6564754],[-74.1805869,39.6566751],[-74.1805348,39.6566971],[-74.1804839,39.6567199],[-74.1804343,39.6567435],[-74.1803859,39.6567679],[-74.1803387,39.6567931],[-74.1802928,39.6568191],[-74.1802481,39.6568458],[-74.1802046,39.6568734],[-74.1801624,39.6569017],[-74.1801213,39.6569309],[-74.1800815,39.6569608],[-74.180043,39.6569916],[-74.1800057,39.6570231],[-74.1799696,39.6570554],[-74.1799347,39.6570885],[-74.179901,39.6571224],[-74.1798665,39.6571594],[-74.1798333,39.6571974],[-74.1798015,39.657236],[-74.1797714,39.6572752],[-74.1797431,39.6573147],[-74.1797166,39.6573544],[-74.1796921,39.6573942],[-74.1796696,39.6574339],[-74.1796505,39.6574712],[-74.1796325,39.6575104],[-74.1796155,39.6575515],[-74.1795995,39.6575948],[-74.1795845,39.6576403],[-74.1795702,39.6576885],[-74.1795564,39.65774],[-74.179543,39.657796],[-74.1795366,39.6578249],[-74.1795309,39.6578541],[-74.1795257,39.6578835],[-74.1795211,39.6579132],[-74.179517,39.6579432],[-74.1795135,39.6579734],[-74.1795106,39.6580037],[-74.1795083,39.6580343],[-74.1795065,39.6580651],[-74.1795053,39.6580961],[-74.1795047,39.6581272],[-74.1795047,39.6581585],[-74.1795052,39.6581899],[-74.1795063,39.6582215],[-74.179508,39.6582531],[-74.1795103,39.6582849],[-74.1795131,39.6583167],[-74.1795165,39.6583486],[-74.1795205,39.6583806],[-74.1795251,39.6584126],[-74.1795302,39.6584446],[-74.1795359,39.6584765],[-74.1795422,39.6585085],[-74.179549,39.6585404],[-74.1795563,39.6585722],[-74.1795642,39.658604],[-74.1795727,39.6586357],[-74.1795817,39.6586672],[-74.1795912,39.6586986],[-74.1796013,39.6587298],[-74.1796119,39.6587609],[-74.1796229,39.6587917],[-74.1796421,39.658841],[-74.1796634,39.6588912],[-74.1796868,39.6589423],[-74.1797124,39.6589942],[-74.1797401,39.659047],[-74.1797701,39.6591008],[-74.1798022,39.6591555],[-74.1798366,39.6592112],[-74.1798625,39.659251],[-74.1798909,39.659292],[-74.179922,39.6593346],[-74.1799564,39.6593797],[-74.1799896,39.6594217],[-74.1800275,39.6594683],[-74.1801727,39.6596428],[-74.1802072,39.659684],[-74.1802432,39.6597257],[-74.1802807,39.6597679],[-74.1803199,39.6598107],[-74.1803609,39.6598543],[-74.1804038,39.6598988],[-74.1804489,39.6599445],[-74.1804965,39.6599917],[-74.1805787,39.6600713],[-74.180672,39.6601592],[-74.180762,39.6602426],[-74.1809785,39.6604414],[-74.1810871,39.6605426],[-74.1811399,39.6605928],[-74.1811891,39.6606402],[-74.1812355,39.6606857],[-74.1812794,39.6607296],[-74.1813225,39.6607737],[-74.1813637,39.6608167],[-74.181403,39.6608589],[-74.1814407,39.6609004],[-74.1814768,39.6609413],[-74.1815115,39.6609818],[-74.1815447,39.6610218],[-74.1815766,39.6610615],[-74.181704,39.6612232],[-74.1817878,39.6613317],[-74.1818265,39.6613829],[-74.1818624,39.6614314],[-74.181896,39.6614779],[-74.1819278,39.6615228],[-74.1819592,39.6615686],[-74.1819889,39.6616131],[-74.182017,39.6616566],[-74.1820436,39.6616992],[-74.1820687,39.6617411],[-74.1820924,39.6617823],[-74.1821147,39.6618229],[-74.1821357,39.661863],[-74.1821551,39.6619016],[-74.1821739,39.6619407],[-74.1821921,39.6619802],[-74.1822099,39.6620203],[-74.1822271,39.6620608],[-74.1822437,39.6621017],[-74.1822598,39.6621432],[-74.1822754,39.662185],[-74.1822905,39.6622274],[-74.182305,39.6622702],[-74.1823189,39.6623135],[-74.1823323,39.6623572],[-74.1823452,39.6624013],[-74.1823575,39.6624459],[-74.1823693,39.6624909],[-74.1823805,39.6625364],[-74.1823912,39.6625823],[-74.1824013,39.6626286],[-74.1824109,39.6626753],[-74.1824199,39.6627225],[-74.1824283,39.66277],[-74.1824362,39.6628179],[-74.1824436,39.6628663],[-74.1824504,39.662915],[-74.1824566,39.6629641],[-74.1824622,39.6630135],[-74.1824673,39.6630633],[-74.1824719,39.6631135],[-74.1824758,39.6631639],[-74.1824792,39.6632148],[-74.182482,39.6632659],[-74.1824843,39.6633173],[-74.1824874,39.6634176],[-74.1824886,39.6635072],[-74.1824879,39.6635903],[-74.1824854,39.6636684],[-74.1824834,39.6637063],[-74.1824808,39.6637433],[-74.1824778,39.6637794],[-74.1824743,39.6638148],[-74.1824702,39.6638494],[-74.1824657,39.6638834],[-74.1824606,39.6639168],[-74.182455,39.6639495],[-74.1824482,39.6639846],[-74.1824405,39.6640203],[-74.1824317,39.6640566],[-74.182422,39.6640937],[-74.1824112,39.6641316],[-74.1823994,39.6641704],[-74.1823865,39.6642104],[-74.1823724,39.6642516],[-74.1823583,39.6642912],[-74.1823429,39.6643325],[-74.1823078,39.6644219],[-74.1822696,39.6645149],[-74.1821958,39.6646897],[-74.1821585,39.6647771],[-74.1821197,39.6648642],[-74.1820795,39.6649511],[-74.182038,39.6650376],[-74.1819952,39.6651238],[-74.1819511,39.6652096],[-74.1819057,39.665295],[-74.181859,39.6653798],[-74.1818171,39.665454],[-74.1817792,39.6655201],[-74.1817432,39.6655813],[-74.1817087,39.6656387],[-74.1816746,39.6656937],[-74.1816412,39.6657461],[-74.181608,39.6657964],[-74.1815751,39.6658448],[-74.1815389,39.6658958],[-74.1814973,39.6659521],[-74.181459,39.6660026],[-74.1813492,39.6661455],[-74.1812506,39.6662746],[-74.1811499,39.6664043],[-74.1810471,39.6665349],[-74.1809421,39.6666663],[-74.1808349,39.6667986],[-74.1807254,39.666932],[-74.1806134,39.6670664],[-74.180499,39.6672021],[-74.1803822,39.6673389],[-74.1802628,39.6674772],[-74.1801405,39.667617],[-74.1800152,39.6677587],[-74.1798869,39.6679022],[-74.1797553,39.668048],[-74.1796201,39.6681962],[-74.179481,39.6683472],[-74.1792717,39.668572],[-74.179052,39.6688051],[-74.1788201,39.6690484],[-74.1785726,39.6693055],[-74.1783218,39.6695638],[-74.1780432,39.6698488],[-74.1777541,39.670143],[-74.1769545,39.6709549],[-74.1767103,39.671204],[-74.1764919,39.6714278],[-74.1762417,39.6716859],[-74.1760094,39.6719276],[-74.1757904,39.6721577],[-74.1755824,39.6723785],[-74.1751032,39.6728898],[-74.1746233,39.6734007],[-74.1741428,39.6739113],[-74.1736617,39.6744215],[-74.17318,39.6749313],[-74.1726976,39.6754409],[-74.1722147,39.67595],[-74.1717311,39.6764588],[-74.1608378,39.671235]]]}}
